SEMAPHORE_L_00021001-181
1 65272U 25958EI  26070.40793981  .00000000  00000+0  00000-0 0  9996
2 65272  97.8000   0.0000 0000000   0.0000 270.0000 14.89338871    10
SEMAPHORE_L_00021001-182
1 65273U 25587QO  26070.40793981  .00000000  00000+0  00000-0 0  9995
2 65273  97.8000   0.0000 0000000   0.0000 271.5000 14.89338871    17
SEMAPHORE_L_00021001-183
1 65274U 26031UG  26070.40793981  .00000000  00000+0  00000-0 0  9991
2 65274  97.8000   0.0000 0000000   0.0000 273.0000 14.89338871    15
SEMAPHORE_L_00021001-184
1 65275U 23557HS  26070.40793981  .00000000  00000+0  00000-0 0  9992
2 65275  97.8000   0.0000 0000000   0.0000 274.5000 14.89338871    12
SEMAPHORE_L_00021001-185
1 65276U 24890NY  26070.40793981  .00000000  00000+0  00000-0 0  9994
2 65276  97.8000   0.0000 0000000   0.0000 276.0000 14.89338871    10
SEMAPHORE_L_00021001-186
1 65277U 22536KS  26070.40793981  .00000000  00000+0  00000-0 0  9990
2 65277  97.8000   0.0000 0000000   0.0000 277.5000 14.89338871    17
SEMAPHORE_L_00021001-187
1 65278U 25078JM  26070.40793981  .00000000  00000+0  00000-0 0  9995
2 65278  97.8000   0.0000 0000000   0.0000 279.0000 14.89338871    15
SEMAPHORE_L_00021001-188
1 65279U 26840MM  26070.40793981  .00000000  00000+0  00000-0 0  9994
2 65279  97.8000   0.0000 0000000   0.0000 280.5000 14.89338871    13
SEMAPHORE_L_00021001-189
1 65280U 25718YD  26070.40793981  .00000000  00000+0  00000-0 0  9999
2 65280  97.8000   0.0000 0000000   0.0000 282.0000 14.89338871    12
SEMAPHORE_L_00021001-190
1 65281U 22985MR  26070.40793981  .00000000  00000+0  00000-0 0  9993
2 65281  97.8000   0.0000 0000000   0.0000 283.5000 14.89338871    19
SEMAPHORE_L_00021001-191
1 65282U 22013XQ  26070.40793981  .00000000  00000+0  00000-0 0  9996
2 65282  97.8000   0.0000 0000000   0.0000 285.0000 14.89338871    17
SEMAPHORE_L_00021001-192
1 65283U 23221YL  26070.40793981  .00000000  00000+0  00000-0 0  9999
2 65283  97.8000   0.0000 0000000   0.0000 286.5000 14.89338871    14
SEMAPHORE_L_00021001-193
1 65284U 22915ZR  26070.40793981  .00000000  00000+0  00000-0 0  9999
2 65284  97.8000   0.0000 0000000   0.0000 288.0000 14.89338871    12
SEMAPHORE_L_00021001-194
1 65285U 23099TO  26070.40793981  .00000000  00000+0  00000-0 0  9994
2 65285  97.8000   0.0000 0000000   0.0000 289.5000 14.89338871    19
SEMAPHORE_L_00021001-195
1 65286U 22693BP  26070.40793981  .00000000  00000+0  00000-0 0  9994
2 65286  97.8000   0.0000 0000000   0.0000 291.0000 14.89338871    18
SEMAPHORE_L_00021001-196
1 65287U 25379ZE  26070.40793981  .00000000  00000+0  00000-0 0  9999
2 65287  97.8000   0.0000 0000000   0.0000 292.5000 14.89338871    15
SEMAPHORE_L_00021001-197
1 65288U 25284UQ  26070.40793981  .00000000  00000+0  00000-0 0  9995
2 65288  97.8000   0.0000 0000000   0.0000 294.0000 14.89338871    13
SEMAPHORE_L_00021001-198
1 65289U 22515RV  26070.40793981  .00000000  00000+0  00000-0 0  9990
2 65289  97.8000   0.0000 0000000   0.0000 295.5000 14.89338871    10
SEMAPHORE_L_00021001-199
1 65290U 25398CM  26070.40793981  .00000000  00000+0  00000-0 0  9994
2 65290  97.8000   0.0000 0000000   0.0000 297.0000 14.89338871    19
SEMAPHORE_L_00021001-200
1 65291U 25804KC  26070.40793981  .00000000  00000+0  00000-0 0  9997
2 65291  97.8000   0.0000 0000000   0.0000 298.5000 14.89338871    16
SEMAPHORE_L_00021001-201
1 65292U 26431TD  26070.40793981  .00000000  00000+0  00000-0 0  9995
2 65292  97.8000   0.0000 0000000   0.0000 300.0000 14.89338871    16
SEMAPHORE_L_00021001-202
1 65293U 22710TQ  26070.40793981  .00000000  00000+0  00000-0 0  9992
2 65293  97.8000   0.0000 0000000   0.0000 301.5000 14.89338871    13
SEMAPHORE_L_00021001-203
1 65294U 26928KY  26070.40793981  .00000000  00000+0  00000-0 0  9998
2 65294  97.8000   0.0000 0000000   0.0000 303.0000 14.89338871    11
SEMAPHORE_L_00021001-204
1 65295U 25770LE  26070.40793981  .00000000  00000+0  00000-0 0  9993
2 65295  97.8000   0.0000 0000000   0.0000 304.5000 14.89338871    18
SEMAPHORE_L_00021001-205
1 65296U 23709QC  26070.40793981  .00000000  00000+0  00000-0 0  9994
2 65296  97.8000   0.0000 0000000   0.0000 306.0000 14.89338871    16
SEMAPHORE_L_00021001-206
1 65297U 24139IS  26070.40793981  .00000000  00000+0  00000-0 0  9993
2 65297  97.8000   0.0000 0000000   0.0000 307.5000 14.89338871    13
SEMAPHORE_L_00021001-207
1 65298U 22425YI  26070.40793981  .00000000  00000+0  00000-0 0  9990
2 65298  97.8000   0.0000 0000000   0.0000 309.0000 14.89338871    11
SEMAPHORE_L_00021001-208
1 65299U 22701VV  26070.40793981  .00000000  00000+0  00000-0 0  9998
2 65299  97.8000   0.0000 0000000   0.0000 310.5000 14.89338871    19
SEMAPHORE_L_00021001-209
1 65300U 25303SG  26070.40793981  .00000000  00000+0  00000-0 0  9992
2 65300  97.8000   0.0000 0000000   0.0000 312.0000 14.89338871    19
SEMAPHORE_L_00021001-210
1 65301U 25586BN  26070.40793981  .00000000  00000+0  00000-0 0  9996
2 65301  97.8000   0.0000 0000000   0.0000 313.5000 14.89338871    16
SEMAPHORE_L_00021001-211
1 65302U 26188CG  26070.40793981  .00000000  00000+0  00000-0 0  9996
2 65302  97.8000   0.0000 0000000   0.0000 315.0000 14.89338871    14
SEMAPHORE_L_00021001-212
1 65303U 24174DB  26070.40793981  .00000000  00000+0  00000-0 0  9990
2 65303  97.8000   0.0000 0000000   0.0000 316.5000 14.89338871    11
SEMAPHORE_L_00021001-213
1 65304U 22041VG  26070.40793981  .00000000  00000+0  00000-0 0  9992
2 65304  97.8000   0.0000 0000000   0.0000 318.0000 14.89338871    19
SEMAPHORE_L_00021001-214
1 65305U 22225WU  26070.40793981  .00000000  00000+0  00000-0 0  9997
2 65305  97.8000   0.0000 0000000   0.0000 319.5000 14.89338871    16
SEMAPHORE_L_00021001-215
1 65306U 24856PU  26070.40793981  .00000000  00000+0  00000-0 0  9990
2 65306  97.8000   0.0000 0000000   0.0000 321.0000 14.89338871    15
SEMAPHORE_L_00021001-216
1 65307U 26936QS  26070.40793981  .00000000  00000+0  00000-0 0  9992
2 65307  97.8000   0.0000 0000000   0.0000 322.5000 14.89338871    12
SEMAPHORE_L_00021001-217
1 65308U 22450UD  26070.40793981  .00000000  00000+0  00000-0 0  9990
2 65308  97.8000   0.0000 0000000   0.0000 324.0000 14.89338871    10
SEMAPHORE_L_00021001-218
1 65309U 26700ZM  26070.40793981  .00000000  00000+0  00000-0 0  9993
2 65309  97.8000   0.0000 0000000   0.0000 325.5000 14.89338871    17
SEMAPHORE_L_00021001-219
1 65310U 22760TK  26070.40793981  .00000000  00000+0  00000-0 0  9997
2 65310  97.8000   0.0000 0000000   0.0000 327.0000 14.89338871    16
SEMAPHORE_L_00021001-220
1 65311U 26946VV  26070.40793981  .00000000  00000+0  00000-0 0  9998
2 65311  97.8000   0.0000 0000000   0.0000 328.5000 14.89338871    13
SEMAPHORE_L_00021001-221
1 65312U 22181DO  26070.40793981  .00000000  00000+0  00000-0 0  9996
2 65312  97.8000   0.0000 0000000   0.0000 330.0000 14.89338871    12
SEMAPHORE_L_00021001-222
1 65313U 22250TC  26070.40793981  .00000000  00000+0  00000-0 0  9994
2 65313  97.8000   0.0000 0000000   0.0000 331.5000 14.89338871    19
SEMAPHORE_L_00021001-223
1 65314U 22269VZ  26070.40793981  .00000000  00000+0  00000-0 0  9995
2 65314  97.8000   0.0000 0000000   0.0000 333.0000 14.89338871    17
SEMAPHORE_L_00021001-224
1 65315U 22022KJ  26070.40793981  .00000000  00000+0  00000-0 0  9993
2 65315  97.8000   0.0000 0000000   0.0000 334.5000 14.89338871    14
SEMAPHORE_L_00021001-225
1 65316U 22313EC  26070.40793981  .00000000  00000+0  00000-0 0  9997
2 65316  97.8000   0.0000 0000000   0.0000 336.0000 14.89338871    12
SEMAPHORE_L_00021001-226
1 65317U 24700EX  26070.40793981  .00000000  00000+0  00000-0 0  9990
2 65317  97.8000   0.0000 0000000   0.0000 337.5000 14.89338871    19
SEMAPHORE_L_00021001-227
1 65318U 22156CY  26070.40793981  .00000000  00000+0  00000-0 0  9994
2 65318  97.8000   0.0000 0000000   0.0000 339.0000 14.89338871    17
SEMAPHORE_L_00021001-228
1 65319U 25864ML  26070.40793981  .00000000  00000+0  00000-0 0  9994
2 65319  97.8000   0.0000 0000000   0.0000 340.5000 14.89338871    15
SEMAPHORE_L_00021001-229
1 65320U 24813OO  26070.40793981  .00000000  00000+0  00000-0 0  9999
2 65320  97.8000   0.0000 0000000   0.0000 342.0000 14.89338871    14
SEMAPHORE_L_00021001-230
1 65321U 24560FO  26070.40793981  .00000000  00000+0  00000-0 0  9999
2 65321  97.8000   0.0000 0000000   0.0000 343.5000 14.89338871    11
SEMAPHORE_L_00021001-231
1 65322U 24630AS  26070.40793981  .00000000  00000+0  00000-0 0  9998
2 65322  97.8000   0.0000 0000000   0.0000 345.0000 14.89338871    19
SEMAPHORE_L_00021001-232
1 65323U 23965X   26070.40793981  .00000000  00000+0  00000-0 0  9999
2 65323  97.8000   0.0000 0000000   0.0000 346.5000 14.89338871    16
SEMAPHORE_L_00021001-233
1 65324U 23011XG  26070.40793981  .00000000  00000+0  00000-0 0  9992
2 65324  97.8000   0.0000 0000000   0.0000 348.0000 14.89338871    14
SEMAPHORE_L_00021001-234
1 65325U 22787AD  26070.40793981  .00000000  00000+0  00000-0 0  9992
2 65325  97.8000   0.0000 0000000   0.0000 349.5000 14.89338871    11
SEMAPHORE_L_00021001-235
1 65326U 23181BB  26070.40793981  .00000000  00000+0  00000-0 0  9992
2 65326  97.8000   0.0000 0000000   0.0000 351.0000 14.89338871    10
SEMAPHORE_L_00021001-236
1 65327U 22620AT  26070.40793981  .00000000  00000+0  00000-0 0  9990
2 65327  97.8000   0.0000 0000000   0.0000 352.5000 14.89338871    17
SEMAPHORE_L_00021001-237
1 65328U 23494E   26070.40793981  .00000000  00000+0  00000-0 0  9991
2 65328  97.8000   0.0000 0000000   0.0000 354.0000 14.89338871    15
SEMAPHORE_L_00021001-238
1 65329U 25683HO  26070.40793981  .00000000  00000+0  00000-0 0  9994
2 65329  97.8000   0.0000 0000000   0.0000 355.5000 14.89338871    12
SEMAPHORE_L_00021001-239
1 65330U 22496YH  26070.40793981  .00000000  00000+0  00000-0 0  9995
2 65330  97.8000   0.0000 0000000   0.0000 357.0000 14.89338871    11
SEMAPHORE_L_00021001-240
1 65331U 22904AP  26070.40793981  .00000000  00000+0  00000-0 0  9990
2 65331  97.8000   0.0000 0000000   0.0000 358.5000 14.89338871    18
